{
  "type": "FeatureCollection",
  "features": [
    {
      "type": "Feature",
      "properties": {
        "norad_id": 66622,
        "name": "STARLINK-35950",
        "group": "last-30-days",
        "lat": -6.615083255704873,
        "lon": 168.43599514533213,
        "alt_km": 420.3955728654819,
        "timestamp": "2025-12-15T14:57:56.621224+00:00",
        "meta_object_name": "STARLINK-35950",
        "meta_object_id": "2025-271F",
        "meta_epoch": "2025-12-14T20:00:06.000192",
        "meta_mean_motion": 15.49283296,
        "meta_eccentricity": 8.021e-05,
        "meta_inclination": 53.1599,
        "meta_ra_of_asc_node": 177.2032,
        "meta_arg_of_pericenter": 83.5218,
        "meta_mean_anomaly": 178.6049,
        "meta_ephemeris_type": 0,
        "meta_classification_type": "U",
        "meta_norad_cat_id": 66622,
        "meta_element_set_no": 999,
        "meta_rev_at_epoch": 458,
        "meta_bstar": 0.00074410452,
        "meta_mean_motion_dot": 0.00041116,
        "meta_mean_motion_ddot": 0,
        "tle_line1": "1 66622U 25271F   25348.83340278  .00041116  00000+0  74410-3 0  9997",
        "tle_line2": "2 66622  53.1599 177.2032 0000802  83.5218 178.6049 15.49283296  4586"
      },
      "geometry": {
        "type": "Point",
        "coordinates": [
          168.43599514533213,
          -6.615083255704873
        ]
      }
    },
    {
      "type": "Feature",
      "properties": {
        "norad_id": 66623,
        "name": "STARLINK-35920",
        "group": "last-30-days",
        "lat": -6.486683481147494,
        "lon": 168.53342040722617,
        "alt_km": 428.8654654282009,
        "timestamp": "2025-12-15T14:57:56.621233+00:00",
        "meta_object_name": "STARLINK-35920",
        "meta_object_id": "2025-271G",
        "meta_epoch": "2025-12-14T20:00:06.000192",
        "meta_mean_motion": 15.49672572,
        "meta_eccentricity": 0.00015178,
        "meta_inclination": 53.16,
        "meta_ra_of_asc_node": 177.1951,
        "meta_arg_of_pericenter": 92.4677,
        "meta_mean_anomaly": 173.441,
        "meta_ephemeris_type": 0,
        "meta_classification_type": "U",
        "meta_norad_cat_id": 66623,
        "meta_element_set_no": 999,
        "meta_rev_at_epoch": 458,
        "meta_bstar": -0.037903462,
        "meta_mean_motion_dot": -0.01917173,
        "meta_mean_motion_ddot": 0,
        "tle_line1": "1 66623U 25271G   25348.83340278 -.01917173  00000+0 -37903-1 0  9990",
        "tle_line2": "2 66623  53.1600 177.1951 0001517  92.4677 173.4410 15.49672572  4585"
      },
      "geometry": {
        "type": "Point",
        "coordinates": [
          168.53342040722617,
          -6.486683481147494
        ]
      }
    },
    {
      "type": "Feature",
      "properties": {
        "norad_id": 66624,
        "name": "STARLINK-35927",
        "group": "last-30-days",
        "lat": -5.090756004261058,
        "lon": 169.59064359093347,
        "alt_km": 420.1393568802114,
        "timestamp": "2025-12-15T14:57:56.621242+00:00",
        "meta_object_name": "STARLINK-35927",
        "meta_object_id": "2025-271H",
        "meta_epoch": "2025-12-14T20:00:06.000192",
        "meta_mean_motion": 15.49278055,
        "meta_eccentricity": 8.493e-05,
        "meta_inclination": 53.1598,
        "meta_ra_of_asc_node": 177.1995,
        "meta_arg_of_pericenter": 77.1082,
        "meta_mean_anomaly": 186.9403,
        "meta_ephemeris_type": 0,
        "meta_classification_type": "U",
        "meta_norad_cat_id": 66624,
        "meta_element_set_no": 999,
        "meta_rev_at_epoch": 458,
        "meta_bstar": 0.00078102822,
        "meta_mean_motion_dot": 0.00043182,
        "meta_mean_motion_ddot": 0,
        "tle_line1": "1 66624U 25271H   25348.83340278  .00043182  00000+0  78103-3 0  9997",
        "tle_line2": "2 66624  53.1598 177.1995 0000849  77.1082 186.9403 15.49278055  4586"
      },
      "geometry": {
        "type": "Point",
        "coordinates": [
          169.59064359093347,
          -5.090756004261058
        ]
      }
    },
    {
      "type": "Feature",
      "properties": {
        "norad_id": 66625,
        "name": "STARLINK-35929",
        "group": "last-30-days",
        "lat": -2.024374380218428,
        "lon": 171.8926164318559,
        "alt_km": 419.8231871617663,
        "timestamp": "2025-12-15T14:57:56.621252+00:00",
        "meta_object_name": "STARLINK-35929",
        "meta_object_id": "2025-271J",
        "meta_epoch": "2025-12-14T20:00:06.000192",
        "meta_mean_motion": 15.49281749,
        "meta_eccentricity": 0.00011578,
        "meta_inclination": 53.16,
        "meta_ra_of_asc_node": 177.1904,
        "meta_arg_of_pericenter": 87.0595,
        "meta_mean_anomaly": 180.8198,
        "meta_ephemeris_type": 0,
        "meta_classification_type": "U",
        "meta_norad_cat_id": 66625,
        "meta_element_set_no": 999,
        "meta_rev_at_epoch": 458,
        "meta_bstar": 0.00077398836,
        "meta_mean_motion_dot": 0.00042792,
        "meta_mean_motion_ddot": 0,
        "tle_line1": "1 66625U 25271J   25348.83340278  .00042792  00000+0  77399-3 0  9990",
        "tle_line2": "2 66625  53.1600 177.1904 0001157  87.0595 180.8198 15.49281749  4581"
      },
      "geometry": {
        "type": "Point",
        "coordinates": [
          171.8926164318559,
          -2.024374380218428
        ]
      }
    },
    {
      "type": "Feature",
      "properties": {
        "norad_id": 66626,
        "name": "STARLINK-35902",
        "group": "last-30-days",
        "lat": -0.5308507030559774,
        "lon": 173.00972442338116,
        "alt_km": 419.8035384225186,
        "timestamp": "2025-12-15T14:57:56.621261+00:00",
        "meta_object_name": "STARLINK-35902",
        "meta_object_id": "2025-271K",
        "meta_epoch": "2025-12-14T20:00:06.000192",
        "meta_mean_motion": 15.493068,
        "meta_eccentricity": 7.082e-05,
        "meta_inclination": 53.1598,
        "meta_ra_of_asc_node": 177.1869,
        "meta_arg_of_pericenter": 88.9271,
        "meta_mean_anomaly": 180.8675,
        "meta_ephemeris_type": 0,
        "meta_classification_type": "U",
        "meta_norad_cat_id": 66626,
        "meta_element_set_no": 999,
        "meta_rev_at_epoch": 458,
        "meta_bstar": -0.00022517121,
        "meta_mean_motion_dot": -0.00012949,
        "meta_mean_motion_ddot": 0,
        "tle_line1": "1 66626U 25271K   25348.83340278 -.00012949  00000+0 -22517-3 0  9996",
        "tle_line2": "2 66626  53.1598 177.1869 0000708  88.9271 180.8675 15.49306800  4586"
      },
      "geometry": {
        "type": "Point",
        "coordinates": [
          173.00972442338116,
          -0.5308507030559774
        ]
      }
    },
    {
      "type": "Feature",
      "properties": {
        "norad_id": 66627,
        "name": "STARLINK-35904",
        "group": "last-30-days",
        "lat": 1.045639042359984,
        "lon": 174.1874669623054,
        "alt_km": 419.3383234186904,
        "timestamp": "2025-12-15T14:57:56.621271+00:00",
        "meta_object_name": "STARLINK-35904",
        "meta_object_id": "2025-271L",
        "meta_epoch": "2025-12-14T20:00:06.000192",
        "meta_mean_motion": 15.492856,
        "meta_eccentricity": 7.515e-05,
        "meta_inclination": 53.1597,
        "meta_ra_of_asc_node": 177.1827,
        "meta_arg_of_pericenter": 81.814,
        "meta_mean_anomaly": 189.8944,
        "meta_ephemeris_type": 0,
        "meta_classification_type": "U",
        "meta_norad_cat_id": 66627,
        "meta_element_set_no": 999,
        "meta_rev_at_epoch": 442,
        "meta_bstar": 0.00070979709,
        "meta_mean_motion_dot": 0.00039193,
        "meta_mean_motion_ddot": 0,
        "tle_line1": "1 66627U 25271L   25348.83340278  .00039193  00000+0  70980-3 0  9992",
        "tle_line2": "2 66627  53.1597 177.1827 0000751  81.8140 189.8944 15.49285600  4420"
      },
      "geometry": {
        "type": "Point",
        "coordinates": [
          174.1874669623054,
          1.045639042359984
        ]
      }
    },
    {
      "type": "Feature",
      "properties": {
        "norad_id": 66628,
        "name": "STARLINK-35862",
        "group": "last-30-days",
        "lat": 2.5827302612992615,
        "lon": 175.33733288388083,
        "alt_km": 419.11676109541986,
        "timestamp": "2025-12-15T14:57:56.621280+00:00",
        "meta_object_name": "STARLINK-35862",
        "meta_object_id": "2025-271M",
        "meta_epoch": "2025-12-14T20:00:06.000192",
        "meta_mean_motion": 15.49284969,
        "meta_eccentricity": 7.642e-05,
        "meta_inclination": 53.1598,
        "meta_ra_of_asc_node": 177.1786,
        "meta_arg_of_pericenter": 83.2997,
        "meta_mean_anomaly": 190.3259,
        "meta_ephemeris_type": 0,
        "meta_classification_type": "U",
        "meta_norad_cat_id": 66628,
        "meta_element_set_no": 999,
        "meta_rev_at_epoch": 458,
        "meta_bstar": 0.00075784154,
        "meta_mean_motion_dot": 0.0004189,
        "meta_mean_motion_ddot": 0,
        "tle_line1": "1 66628U 25271M   25348.83340278  .00041890  00000+0  75784-3 0  9997",
        "tle_line2": "2 66628  53.1598 177.1786 0000764  83.2997 190.3259 15.49284969  4586"
      },
      "geometry": {
        "type": "Point",
        "coordinates": [
          175.33733288388083,
          2.5827302612992615
        ]
      }
    }
  ]
}